STARLINK-36421          
1 67464U 26008V   26068.41213908  .00043825  00000+0  15913-2 0  9995
2 67464  42.9980 206.4528 0002855 282.8553  77.1979 15.27605189  9532
KUIPER-00209            
1 67776U 26030N   26068.61786546  .00035298  00000+0  11963-2 0  9997
2 67776  51.8838 220.0775 0012191  59.1967 301.0215 15.30161950  5077
