[{"OBJECT_NAME":"STARLINK-36421","OBJECT_ID":"2026-008V","EPOCH":"2026-03-09T09:53:28.816512","MEAN_MOTION":15.27605189,"ECCENTRICITY":0.00028552,"INCLINATION":42.998,"RA_OF_ASC_NODE":206.4528,"ARG_OF_PERICENTER":282.8553,"MEAN_ANOMALY":77.1979,"EPHEMERIS_TYPE":0,"CLASSIFICATION_TYPE":"U","NORAD_CAT_ID":67464,"ELEMENT_SET_NO":999,"REV_AT_EPOCH":953,"BSTAR":0.0015913194,"MEAN_MOTION_DOT":0.00043825,"MEAN_MOTION_DDOT":0},{"OBJECT_NAME":"KUIPER-00209","OBJECT_ID":"2026-030N","EPOCH":"2026-03-09T14:49:43.575744","MEAN_MOTION":15.3016195,"ECCENTRICITY":0.0012191,"INCLINATION":51.8838,"RA_OF_ASC_NODE":220.0775,"ARG_OF_PERICENTER":59.1967,"MEAN_ANOMALY":301.0215,"EPHEMERIS_TYPE":0,"CLASSIFICATION_TYPE":"U","NORAD_CAT_ID":67776,"ELEMENT_SET_NO":999,"REV_AT_EPOCH":507,"BSTAR":0.0011963,"MEAN_MOTION_DOT":0.00035298,"MEAN_MOTION_DDOT":0}]
